[{"OBJECT_NAME":"HULIANWANG DIGUI-49","OBJECT_ID":"2025-168A","EPOCH":"2026-03-06T07:34:31.810944","MEAN_MOTION":13.29338932,"ECCENTRICITY":0.00074168,"INCLINATION":50.0048,"RA_OF_ASC_NODE":334.9261,"ARG_OF_PERICENTER":155.4954,"MEAN_ANOMALY":204.6272,"EPHEMERIS_TYPE":0,"CLASSIFICATION_TYPE":"U","NORAD_CAT_ID":65106,"ELEMENT_SET_NO":999,"REV_AT_EPOCH":2900,"BSTAR":0.00019836267,"MEAN_MOTION_DOT":-3.2e-7,"MEAN_MOTION_DDOT":0},{"OBJECT_NAME":"HULIANWANG DIGUI-50","OBJECT_ID":"2025-168B","EPOCH":"2026-03-06T05:34:10.377984","MEAN_MOTION":13.2933957,"ECCENTRICITY":0.00083939,"INCLINATION":50.0019,"RA_OF_ASC_NODE":335.0948,"ARG_OF_PERICENTER":141.2541,"MEAN_ANOMALY":218.8935,"EPHEMERIS_TYPE":0,"CLASSIFICATION_TYPE":"U","NORAD_CAT_ID":65107,"ELEMENT_SET_NO":999,"REV_AT_EPOCH":2899,"BSTAR":0.00020157686,"MEAN_MOTION_DOT":-3.1e-7,"MEAN_MOTION_DDOT":0},{"OBJECT_NAME":"HULIANWANG DIGUI-51","OBJECT_ID":"2025-168C","EPOCH":"2026-03-06T07:10:23.034144","MEAN_MOTION":13.29339849,"ECCENTRICITY":0.00097501,"INCLINATION":50.0056,"RA_OF_ASC_NODE":334.8516,"ARG_OF_PERICENTER":141.436,"MEAN_ANOMALY":218.721,"EPHEMERIS_TYPE":0,"CLASSIFICATION_TYPE":"U","NORAD_CAT_ID":65108,"ELEMENT_SET_NO":999,"REV_AT_EPOCH":2900,"BSTAR":0.000194805,"MEAN_MOTION_DOT":-3.4e-7,"MEAN_MOTION_DDOT":0},{"OBJECT_NAME":"HULIANWANG DIGUI-52","OBJECT_ID":"2025-168D","EPOCH":"2026-03-06T06:58:31.213056","MEAN_MOTION":13.29338462,"ECCENTRICITY":0.00096137,"INCLINATION":50.0049,"RA_OF_ASC_NODE":334.7911,"ARG_OF_PERICENTER":154.3722,"MEAN_ANOMALY":205.7629,"EPHEMERIS_TYPE":0,"CLASSIFICATION_TYPE":"U","NORAD_CAT_ID":65109,"ELEMENT_SET_NO":999,"REV_AT_EPOCH":2900,"BSTAR":0.0001985407,"MEAN_MOTION_DOT":-3.2e-7,"MEAN_MOTION_DDOT":0},{"OBJECT_NAME":"HULIANWANG DIGUI-53","OBJECT_ID":"2025-168E","EPOCH":"2026-03-06T06:46:29.345376","MEAN_MOTION":13.29338338,"ECCENTRICITY":0.00084308,"INCLINATION":50.0057,"RA_OF_ASC_NODE":334.7695,"ARG_OF_PERICENTER":144.0209,"MEAN_ANOMALY":216.1233,"EPHEMERIS_TYPE":0,"CLASSIFICATION_TYPE":"U","NORAD_CAT_ID":65110,"ELEMENT_SET_NO":999,"REV_AT_EPOCH":2900,"BSTAR":0.00019448947,"MEAN_MOTION_DOT":-3.4e-7,"MEAN_MOTION_DDOT":0},{"OBJECT_NAME":"HULIANWANG DIGUI-54","OBJECT_ID":"2025-168F","EPOCH":"2026-03-06T06:10:40.083168","MEAN_MOTION":13.29335583,"ECCENTRICITY":0.00100035,"INCLINATION":50.0007,"RA_OF_ASC_NODE":334.5491,"ARG_OF_PERICENTER":149.3516,"MEAN_ANOMALY":210.7942,"EPHEMERIS_TYPE":0,"CLASSIFICATION_TYPE":"U","NORAD_CAT_ID":65111,"ELEMENT_SET_NO":999,"REV_AT_EPOCH":2900,"BSTAR":0.00020799642,"MEAN_MOTION_DOT":-2.8e-7,"MEAN_MOTION_DDOT":0},{"OBJECT_NAME":"HULIANWANG DIGUI-55","OBJECT_ID":"2025-168G","EPOCH":"2026-03-06T06:34:21.113472","MEAN_MOTION":13.29339033,"ECCENTRICITY":0.00113051,"INCLINATION":50.0013,"RA_OF_ASC_NODE":334.6427,"ARG_OF_PERICENTER":145.1433,"MEAN_ANOMALY":215.0181,"EPHEMERIS_TYPE":0,"CLASSIFICATION_TYPE":"U","NORAD_CAT_ID":65112,"ELEMENT_SET_NO":999,"REV_AT_EPOCH":2900,"BSTAR":0.00018919254,"MEAN_MOTION_DOT":-3.6e-7,"MEAN_MOTION_DDOT":0},{"OBJECT_NAME":"HULIANWANG DIGUI-56","OBJECT_ID":"2025-168H","EPOCH":"2026-03-06T06:22:21.059328","MEAN_MOTION":13.29338412,"ECCENTRICITY":0.00109984,"INCLINATION":50.0005,"RA_OF_ASC_NODE":334.5837,"ARG_OF_PERICENTER":167.119,"MEAN_ANOMALY":192.9965,"EPHEMERIS_TYPE":0,"CLASSIFICATION_TYPE":"U","NORAD_CAT_ID":65113,"ELEMENT_SET_NO":999,"REV_AT_EPOCH":2900,"BSTAR":0.00018612673,"MEAN_MOTION_DOT":-3.8e-7,"MEAN_MOTION_DDOT":0},{"OBJECT_NAME":"HULIANWANG DIGUI-57","OBJECT_ID":"2025-168J","EPOCH":"2026-03-06T05:58:40.486080","MEAN_MOTION":13.29335382,"ECCENTRICITY":0.00087483,"INCLINATION":50.0033,"RA_OF_ASC_NODE":334.5535,"ARG_OF_PERICENTER":157.5129,"MEAN_ANOMALY":202.6128,"EPHEMERIS_TYPE":0,"CLASSIFICATION_TYPE":"U","NORAD_CAT_ID":65114,"ELEMENT_SET_NO":999,"REV_AT_EPOCH":2901,"BSTAR":0.00019285067,"MEAN_MOTION_DOT":-3.5e-7,"MEAN_MOTION_DDOT":0},{"OBJECT_NAME":"HULIANWANG DIGUI-58","OBJECT_ID":"2025-174A","EPOCH":"2026-03-06T07:03:43.471296","MEAN_MOTION":13.24421205,"ECCENTRICITY":0.00012646,"INCLINATION":86.4924,"RA_OF_ASC_NODE":286.7795,"ARG_OF_PERICENTER":88.4784,"MEAN_ANOMALY":271.6495,"EPHEMERIS_TYPE":0,"CLASSIFICATION_TYPE":"U","NORAD_CAT_ID":65164,"ELEMENT_SET_NO":999,"REV_AT_EPOCH":2717,"BSTAR":7.3411603e-5,"MEAN_MOTION_DOT":4.6e-7,"MEAN_MOTION_DDOT":0},{"OBJECT_NAME":"HULIANWANG DIGUI-59","OBJECT_ID":"2025-174B","EPOCH":"2026-03-06T07:14:35.850912","MEAN_MOTION":13.24421377,"ECCENTRICITY":0.00012465,"INCLINATION":86.4885,"RA_OF_ASC_NODE":286.7061,"ARG_OF_PERICENTER":87.7738,"MEAN_ANOMALY":272.3539,"EPHEMERIS_TYPE":0,"CLASSIFICATION_TYPE":"U","NORAD_CAT_ID":65165,"ELEMENT_SET_NO":999,"REV_AT_EPOCH":2717,"BSTAR":0.00010245369,"MEAN_MOTION_DOT":5.9e-7,"MEAN_MOTION_DDOT":0},{"OBJECT_NAME":"HULIANWANG DIGUI-60","OBJECT_ID":"2025-174C","EPOCH":"2026-03-06T05:36:38.926368","MEAN_MOTION":13.2442154,"ECCENTRICITY":0.00012222,"INCLINATION":86.4917,"RA_OF_ASC_NODE":286.7988,"ARG_OF_PERICENTER":89.6712,"MEAN_ANOMALY":270.4562,"EPHEMERIS_TYPE":0,"CLASSIFICATION_TYPE":"U","NORAD_CAT_ID":65166,"ELEMENT_SET_NO":999,"REV_AT_EPOCH":2716,"BSTAR":0.00010444003,"MEAN_MOTION_DOT":5.9e-7,"MEAN_MOTION_DDOT":0},{"OBJECT_NAME":"HULIANWANG DIGUI-61","OBJECT_ID":"2025-174D","EPOCH":"2026-03-06T05:47:36.676608","MEAN_MOTION":13.2442011,"ECCENTRICITY":0.00011756,"INCLINATION":86.4925,"RA_OF_ASC_NODE":286.819,"ARG_OF_PERICENTER":89.1641,"MEAN_ANOMALY":270.9628,"EPHEMERIS_TYPE":0,"CLASSIFICATION_TYPE":"U","NORAD_CAT_ID":65167,"ELEMENT_SET_NO":999,"REV_AT_EPOCH":2716,"BSTAR":0.00015651533,"MEAN_MOTION_DOT":8.2e-7,"MEAN_MOTION_DDOT":0},{"OBJECT_NAME":"HULIANWANG DIGUI-62","OBJECT_ID":"2025-174E","EPOCH":"2026-03-06T05:58:25.316832","MEAN_MOTION":13.24421467,"ECCENTRICITY":0.00011829,"INCLINATION":86.4867,"RA_OF_ASC_NODE":286.7052,"ARG_OF_PERICENTER":91.8516,"MEAN_ANOMALY":268.2753,"EPHEMERIS_TYPE":0,"CLASSIFICATION_TYPE":"U","NORAD_CAT_ID":65168,"ELEMENT_SET_NO":999,"REV_AT_EPOCH":2716,"BSTAR":0.00017799792,"MEAN_MOTION_DOT":9.1e-7,"MEAN_MOTION_DDOT":0},{"OBJECT_NAME":"HULIANWANG DIGUI-63","OBJECT_ID":"2025-174F","EPOCH":"2026-03-06T06:09:16.749504","MEAN_MOTION":13.24421829,"ECCENTRICITY":0.00011983,"INCLINATION":86.492,"RA_OF_ASC_NODE":286.8126,"ARG_OF_PERICENTER":88.8274,"MEAN_ANOMALY":271.2997,"EPHEMERIS_TYPE":0,"CLASSIFICATION_TYPE":"U","NORAD_CAT_ID":65169,"ELEMENT_SET_NO":999,"REV_AT_EPOCH":2716,"BSTAR":0.00015674279,"MEAN_MOTION_DOT":8.2e-7,"MEAN_MOTION_DDOT":0},{"OBJECT_NAME":"HULIANWANG DIGUI-64","OBJECT_ID":"2025-174G","EPOCH":"2026-03-06T06:20:09.649248","MEAN_MOTION":13.24421865,"ECCENTRICITY":0.00011919,"INCLINATION":86.4879,"RA_OF_ASC_NODE":286.735,"ARG_OF_PERICENTER":91.4621,"MEAN_ANOMALY":268.665,"EPHEMERIS_TYPE":0,"CLASSIFICATION_TYPE":"U","NORAD_CAT_ID":65170,"ELEMENT_SET_NO":999,"REV_AT_EPOCH":2716,"BSTAR":0.00012634073,"MEAN_MOTION_DOT":6.9e-7,"MEAN_MOTION_DDOT":0}]
