HULIANWANG DIGUI-49     
1 65106U 25168A   26065.31564596 -.00000032  00000+0  19836-3 0  9993
2 65106  50.0048 334.9261 0007416 155.4954 204.6272 13.29338932 29003
HULIANWANG DIGUI-50     
1 65107U 25168B   26065.23206456 -.00000031  00000+0  20158-3 0  9991
2 65107  50.0019 335.0948 0008393 141.2541 218.8935 13.29339570 28995
HULIANWANG DIGUI-51     
1 65108U 25168C   26065.29887771 -.00000034  00000+0  19480-3 0  9992
2 65108  50.0056 334.8516 0009750 141.4360 218.7210 13.29339849 29001
HULIANWANG DIGUI-52     
1 65109U 25168D   26065.29063904 -.00000032  00000+0  19854-3 0  9990
2 65109  50.0049 334.7911 0009613 154.3722 205.7629 13.29338462 29005
HULIANWANG DIGUI-53     
1 65110U 25168E   26065.28228409 -.00000034  00000+0  19449-3 0  9996
2 65110  50.0057 334.7695 0008430 144.0209 216.1233 13.29338338 29006
HULIANWANG DIGUI-54     
1 65111U 25168F   26065.25740837 -.00000028  00000+0  20800-3 0  9994
2 65111  50.0007 334.5491 0010003 149.3516 210.7942 13.29335583 29008
HULIANWANG DIGUI-55     
1 65112U 25168G   26065.27385548 -.00000036  00000+0  18919-3 0  9998
2 65112  50.0013 334.6427 0011305 145.1433 215.0181 13.29339033 29001
HULIANWANG DIGUI-56     
1 65113U 25168H   26065.26552152 -.00000038  00000+0  18613-3 0  9998
2 65113  50.0005 334.5837 0010998 167.1190 192.9965 13.29338412 29001
HULIANWANG DIGUI-57     
1 65114U 25168J   26065.24907970 -.00000035  00000+0  19285-3 0  9992
2 65114  50.0033 334.5535 0008748 157.5129 202.6128 13.29335382 29017
HULIANWANG DIGUI-58     
1 65164U 25174A   26065.29425314  .00000046  00000+0  73412-4 0  9990
2 65164  86.4924 286.7795 0001264  88.4784 271.6495 13.24421205 27178
HULIANWANG DIGUI-59     
1 65165U 25174B   26065.30180383  .00000059  00000+0  10245-3 0  9995
2 65165  86.4885 286.7061 0001246  87.7738 272.3539 13.24421377 27179
HULIANWANG DIGUI-60     
1 65166U 25174C   26065.23378387  .00000059  00000+0  10444-3 0  9992
2 65166  86.4917 286.7988 0001222  89.6712 270.4562 13.24421540 27167
HULIANWANG DIGUI-61     
1 65167U 25174D   26065.24139672  .00000082  00000+0  15652-3 0  9998
2 65167  86.4925 286.8190 0001175  89.1641 270.9628 13.24420110 27166
HULIANWANG DIGUI-62     
1 65168U 25174E   26065.24890413  .00000091  00000+0  17800-3 0  9993
2 65168  86.4867 286.7052 0001182  91.8516 268.2753 13.24421467 27162
HULIANWANG DIGUI-63     
1 65169U 25174F   26065.25644386  .00000082  00000+0  15674-3 0  9998
2 65169  86.4920 286.8126 0001198  88.8274 271.2997 13.24421829 27166
HULIANWANG DIGUI-64     
1 65170U 25174G   26065.26400057  .00000069  00000+0  12634-3 0  9994
2 65170  86.4879 286.7350 0001191  91.4621 268.6650 13.24421865 27164
